0 COSMOS 374 DEB *
1 05028U 70089Z   13282.38626434  .00003160  00000-0  14023-2 0  2963
2 05028 063.2412 104.1054 0868933 149.6229 285.0215 13.07965867 17362
0 COSMOS 374 DEB *
1 05028U 70089Z   13286.89921476  .00003744  00000-0  16551-2 0  2985
2 05028 063.2400 093.0262 0868566 149.7622 295.2290 13.07987745 17956
0 COSMOS 374 DEB *
1 05028U 70089Z   13288.96548792  .00005716  00000-0  25041-2 0  2997
2 05028 063.2400 087.9523 0868393 149.8244 304.8820 13.08005351 18229
0 COSMOS 374 DEB *
1 05028U 70089Z   13291.03267600  .00005477  00000-0  24021-2 0  3009
2 05028 063.2410 082.8761 0868218 149.8923 318.9723 13.08025056 18499
0 COSMOS 374 DEB *
1 05028U 70089Z   13293.47268708  .00005927  00000-0  25971-2 0  3015
2 05028 063.2428 076.8843 0867955 149.9666 288.8236 13.08048360 18817
0 COSMOS 374 DEB *
1 05028U 70089Z   13295.84468987  .00006092  00000-0  26704-2 0  3029
2 05028 063.2436 071.0620 0867663 150.0426 298.6257 13.08070682 19128
